COSMOS 2433 (720)       
1 32275U 07052A   22230.52184640 -.00000080  00000+0  00000+0 0  9999
2 32275  66.0810   2.6113 0002574 190.3258 167.2915  2.13104178115286
COSMOS 2432 (719)       
1 32276U 07052B   22229.70153183 -.00000079  00000+0  00000+0 0  9994
2 32276  66.0956   2.7403 0007762 334.5727  61.8889  2.13103392115273
COSMOS 2434 (721)       
1 32393U 07065A   22230.19929264  .00000070  00000+0  00000+0 0  9994
2 32393  64.3764 239.3179 0000721 174.7496 185.1993  2.13103141113988
COSMOS 2436 (723)       
1 32395U 07065C   22230.12728931  .00000069  00000+0  00000+0 0  9995
2 32395  64.3851 239.3791 0014759 350.6117  89.9426  2.13102936113925
COSMOS 2456 (730)       
1 36111U 09070A   22230.68868650 -.00000036  00000+0  00000+0 0  9992
2 36111  64.3669 118.9179 0003742 318.0465 222.0695  2.13099402 98662
COSMOS 2457 (733)       
1 36112U 09070B   22230.47466076 -.00000035  00000+0  00000+0 0  9995
2 36112  64.3502 118.7982 0004658 162.1065 341.5966  2.13101584 98663
COSMOS 2461 (735)       
1 36401U 10007B   22230.20586596 -.00000081  00000+0  00000+0 0  9990
2 36401  65.9658   1.4518 0019199  12.7040 319.8521  2.13103724 97005
COSMOS 2460 (732)       
1 36402U 10007C   22230.14647358 -.00000081  00000+0  00000+0 0  9998
2 36402  65.9526   1.4026 0002319 118.8945 117.1130  2.13106430 97004
COSMOS 2464 (736)       
1 37139U 10041C   22230.14745139  .00000069  00000+0  00000+0 0  9995
2 37139  63.9754 238.3651 0027970   5.6755 172.2700  2.13100800 93062
COSMOS 2476 (744)       
1 37867U 11064A   22230.34051451 -.00000033  00000+0  00000+0 0  9990
2 37867  64.6547 120.3097 0021340 236.5437 302.4934  2.13101915 84007
COSMOS 2477 (745)       
1 37868U 11064B   22230.75128385 -.00000036  00000+0  00000+0 0  9990
2 37868  64.6627 120.3607 0018606 237.5370  74.7129  2.13101778 83968
COSMOS 2475 (743)       
1 37869U 11064C   22230.19270741 -.00000032  00000+0  00000+0 0  9999
2 37869  64.6691 120.3884 0022909 255.6263 306.1956  2.13102189 83967
COSMOS 2485 (747)       
1 39155U 13019A   22229.71277745 -.00000027  00000+0  00000+0 0  9992
2 39155  64.8178 120.7726 0021773 232.2870 229.5719  2.13102076 72464
COSMOS 2492 (754)       
1 39620U 14012A   22230.23726774 -.00000082  00000+0  00000+0 0  9994
2 39620  65.8385   1.0723 0010737 327.6076 211.0362  2.13103227 65422
COSMOS 2500 (755)       
1 40001U 14032A   22230.62424512 -.00000083  00000+0  00000+0 0  9990
2 40001  65.7763   0.9154 0007050 183.1873 150.8275  2.13102370 63649
COSMOS 2501 (702K)      
1 40315U 14075A   22230.49261214  .00000072  00000+0  00000+0 0  9995
2 40315  63.6825 238.9978 0019511 212.3155 189.0161  2.13101456 60057
COSMOS 2514 (751)       
1 41330U 16008A   22229.94903968 -.00000082  00000+0  00000+0 0  9990
2 41330  65.5771   0.6157 0010739 201.6114 158.3499  2.13102773 50806
COSMOS 2516 (753)       
1 41554U 16032A   22230.74780403  .00000075  00000+0  00000+0 0  9993
2 41554  63.9090 239.2824 0015036 216.4629 300.2894  2.13106430 48427
COSMOS 2522 (752)       
1 42939U 17055A   22229.49415367  .00000061  00000+0  00000+0 0  9996
2 42939  64.1423 239.7391 0010141 243.8509 246.8965  2.13102010 38158
COSMOS 2527 (756)       
1 43508U 18053A   22230.45605006 -.00000033  00000+0  00000+0 0  9997
2 43508  64.9803 120.7602 0007733 230.2662 310.5080  2.13102575 32469
COSMOS 2529 (757)       
1 43687U 18086A   22230.36020602  .00000071  00000+0  00000+0 0  9995
2 43687  64.3572 240.0422 0011914 262.8542 127.8312  2.13102154 29482
COSMOS 2534 (758)       
1 44299U 19030A   22230.25223428  .00000070  00000+0  00000+0 0  9993
2 44299  64.4298 239.9361 0014130 281.1720 161.2150  2.13101974 25120
COSMOS 2544 (759)       
1 44850U 19088A   22229.83735801 -.00000027  00000+0  16595+1 0  9994
2 44850  64.9661 120.6320 0012220 259.7776 209.7746  2.13102370 20881
COSMOS 2545 (760)       
1 45358U 20018A   22230.65958012 -.00000084  00000+0  00000+0 0  9992
2 45358  64.9157   1.1483 0007740 233.7053 356.0317  2.13102762 18858
COSMOS 2547 (705K)      
1 46805U 20075A   22230.62351477  .00000075  00000+0  00000+0 0  9991
2 46805  64.6542 239.3666 0008702 245.8151 169.3118  2.13103029 14106
COSMOS 2557 (706K)      
1 52984U 22075A   22230.20750369 -.00000082  00000+0  10000-3 0  9999
2 52984  64.8187   3.3662 0010499 279.6919  54.3832  2.13101715   882
